address_id,street,city,country,zip_code
1,Fieldstone,Nagai,Japan,986-0303
2,Veith,Maebashi-shi,Japan,379-2166
3,Dawn,Dayton,United States,45426
4,Dahle,Mizunami,Japan,957-0048
5,Union,Thị Trấn Mường Lát,Vietnam,
6,David,Tân Châu,Vietnam,
7,Mifflin,Kamojimachō-jōgejima,Japan,779-3244
8,Nancy,Tallahassee,United States,32304
9,Vahlen,Tô Hạp,Vietnam,
10,Kedzie,Kashima,Japan,927-0038
11,Killdeer,Dallas,United States,75323
12,Brentwood,Seattle,United States,98195
13,Canary,Nàng Mau,Vietnam,
14,Stoughton,Isehara,Japan,277-0883
15,Bellgrove,Makurazaki,Japan,898-0031
16,Rusk,Newark,United States,07195
17,Larry,Nagai,Japan,986-0303
18,Wayridge,Bình Thủy,Vietnam,
19,Debs,Katsuta,Japan,927-2162
20,Bonner,Baltimore,United States,21281
21,Mayfield,Otaru,Japan,869-1203
22,Pawling,Philadelphia,United States,19178
23,Stone Corner,Mishima,Japan,988-0273
24,Rusk,Tsushima,Japan,979-1757
25,Gina,Inuyama,Japan,938-0043
26,Coolidge,Columbia,United States,65211
27,Armistice,Roanoke,United States,24034
28,Dennis,Itsukaichi,Japan,944-0084
29,Swallow,Denver,United States,80243
30,Hazelcrest,Tân Hưng,Vietnam,
31,Messerschmidt,Yasugichō,Japan,699-0103
32,Sage,Onoda,Japan,979-1543
33,Larry,Buffalo,United States,14205
34,Sutteridge,Joliet,United States,60435
35,Crownhardt,Masuda,Japan,999-8201
36,Pepper Wood,Hội An,Vietnam,
37,Beilfuss,Sacramento,United States,94263
38,Sage,San Jose,United States,95128
39,Express,Itako,Japan,311-2424
40,Arapahoe,Fort Myers,United States,33994
41,Manitowish,Tōno,Japan,326-0036
42,Mifflin,Ishii,Japan,969-5316
43,Mosinee,Grand Junction,United States,81505
44,Buhler,Ashiya,Japan,807-0133
45,Marcy,Oklahoma City,United States,73124
46,Northridge,Reading,United States,19610
47,Dapin,Hatton,United Kingdom,CV35
48,Forest Run,Richmond,United States,23285
49,Kennedy,Kitakyūshū,Japan,822-0003
50,South,El Paso,United States,79945
51,Kinsman,Baltimore,United States,21239
52,Fairview,Washington,United States,20226
53,Forest,Tyler,United States,75799
54,Tennessee,An Lão,Vietnam,
55,Corry,Seto,Japan,966-0033
56,Eggendart,Kanaya,Japan,999-3103
57,Loeprich,Los Angeles,United States,90045
58,Donald,Chatan,Japan,904-0116
59,Moose,Richmond,United States,23289
60,Dapin,Ryūgasaki,Japan,301-0856
61,New Castle,Goshogawara,Japan,861-0312
62,Dunning,Dallas,United States,75397
63,Katie,Jefferson City,United States,65105
64,Chinook,Kazo,Japan,365-0023
65,Basil,Hekinan,Japan,475-0803
66,Fremont,Seattle,United States,98175
67,Sundown,Ninh Giang,Vietnam,
68,Ridge Oak,Mesquite,United States,75185
69,Helena,Giồng Riềng,Vietnam,
70,Cascade,Toledo,United States,43656
71,Armistice,Lansing,United States,48912
72,Stoughton,Chợ Lầu,Vietnam,
73,Larry,Mountain View,United States,94042
74,Oxford,Las Cruces,United States,88006
75,Drewry,Omaha,United States,68117
76,Prairie Rose,Louisville,United States,40205
77,Aberg,Washington,United States,20051
78,Glendale,Tyler,United States,75710
79,Killdeer,Stockton,United States,95210
80,Coleman,Shiki,Japan,863-2503
81,Independence,Long Hồ,Vietnam,
82,Park Meadow,Phoenix,United States,85025
83,Fisk,Kinh Môn,Vietnam,
84,Bellgrove,Kiên Lương,Vietnam,
85,Tomscot,Bryan,United States,77806
86,Annamark,Los Angeles,United States,90076
87,Brown,Kamo,Japan,997-1204
88,Gina,Ōtawara,Japan,329-3155
89,Lindbergh,Beppu,Japan,891-0704
90,Banding,Charleston,United States,29424
91,Memorial,Ford,United Kingdom,GL54
92,Meadow Valley,Las Vegas,United States,89110
93,Hovde,Tsukuba,Japan,369-0114
94,Vermont,Waterbury,United States,06721
95,Lillian,Kokubunji,Japan,952-0304
96,Sunbrook,El Paso,United States,88574
97,Loomis,Las Vegas,United States,89155
98,Kings,Omaha,United States,68144
99,Myrtle,Nagaoka,Japan,999-2222
100,Troy,Ōmachi,Japan,399-8604
101,Bobwhite,Tottori,Japan,969-1783
102,Forster,Kodamachō-kodamaminami,Japan,375-0054
103,Waxwing,Ikeda,Japan,949-1616
104,Granby,Vancouver,United States,98682
105,Bonner,Fullerton,United States,92835
106,Muir,Las Vegas,United States,89105
107,Veith,Denver,United States,80243
108,Oriole,Whitchurch,United Kingdom,BS14
109,Utah,Okegawa,Japan,365-0024
110,Pawling,Sugito,Japan,345-0036
111,Holy Cross,Montgomery,United States,36177
112,Nancy,Tanashichō,Japan,203-0044
113,Toban,Grand Forks,United States,58207
114,Reinke,Tân Sơn,Vietnam,
115,Fieldstone,Miami,United States,33169
116,Emmet,Hưng Yên,Vietnam,
117,Eggendart,Nagoya-shi,Japan,486-0969
118,Sherman,San Diego,United States,92127
119,5th,Lancaster,United States,93584
120,Melvin,Thành Phố Ninh Bình,Vietnam,
121,Petterle,Saint Petersburg,United States,33731
122,Haas,Lansing,United States,48930
123,Algoma,Chiryū,Japan,474-0074
124,Main,Tahara,Japan,879-7305
125,Hudson,Fort Smith,United States,72905
126,Mayer,Thị Trấn Mường Tè,Vietnam,
127,Amoth,Hagerstown,United States,21747
128,Main,Motomiya,Japan,520-0804
129,Tennessee,Austin,United States,78726
130,Tennessee,Anh Son,Vietnam,
131,Union,Alexandria,United States,71307
132,Claremont,Fukuechō,Japan,853-0704
133,Rusk,El Paso,United States,88541
134,Blue Bill Park,Shiogama,Japan,987-0058
135,Duke,Hatogaya-honchō,Japan,336-0036
136,Vera,Hà Tiên,Vietnam,
137,David,Wichita,United States,67260
138,Anderson,Phu Loc,Vietnam,
139,Stephen,Louisville,United States,40266
140,Graedel,Liverpool,United Kingdom,L74
141,Memorial,Thị Trấn Bắc Yên,Vietnam,
142,Forest Dale,Lubbock,United States,79491
143,Park Meadow,Atlanta,United States,30343
144,Golf,Aso,Japan,986-0705
145,Oneill,Thị Trấn Cao Phong,Vietnam,
146,Hudson,Philadelphia,United States,19178
147,Monica,Vân Tùng,Vietnam,
148,Hovde,Lincoln,United States,68505
149,Oneill,Colorado Springs,United States,80945
150,Badeau,Church End,United Kingdom,CB4
151,Hanover,Hachinohe,Japan,812-0045
152,Kipling,Louisville,United States,40293
153,Lighthouse Bay,Ōnojō,Japan,818-0138
154,Corben,Columbus,United States,43220
155,Graceland,Xom Tan Long,Vietnam,
156,Carey,Kuroda,Japan,958-0224
157,Birchwood,Kim Sơn,Vietnam,
158,Declaration,Pittsburgh,United States,15255
159,Mosinee,Las Vegas,United States,89115
160,Lukken,Toyoshina,Japan,399-8205
161,Mitchell,Shingū,Japan,649-5313
162,Dawn,Jackson,United States,39282
163,Algoma,Erie,United States,16522
164,Lillian,Nyūzen,Japan,939-0751
165,Bartelt,Fresno,United States,93704
166,Dwight,Toride,Japan,302-0004
167,Harbort,Tomioka,Japan,999-8524
168,Tennessee,Numata,Japan,996-0087
169,Stuart,Đắk Song,Vietnam,
170,Hooker,Katy,United States,77493
171,Summerview,Middleton,United Kingdom,LE16
172,Paget,Thị Trấn Yên Thịnh,Vietnam,
173,Ridgeview,Oklahoma City,United States,73142
174,Elka,Sueyoshichō-ninokata,Japan,899-8607
175,American Ash,Kon Dơng,Vietnam,
176,Drewry,Salt Lake City,United States,84115
177,Ronald Regan,Lees Summit,United States,64082
178,Tony,Kagoshima-shi,Japan,892-0873
179,Merrick,Philadelphia,United States,19146
180,Fair Oaks,Dĩ An,Vietnam,
181,Dryden,Tánh Linh,Vietnam,
182,New Castle,Buffalo,United States,14225
183,Twin Pines,San Francisco,United States,94159
184,Lunder,Milton,United Kingdom,NG22
185,7th,Gifu-shi,Japan,504-0968
186,Butterfield,Washington,United States,20310
187,Farwell,Kamiiso,Japan,501-0531
188,Katie,Largo,United States,34643
189,Warner,San Antonio,United States,78215
190,Sullivan,Iwakuni,Japan,741-0062
191,Ryan,Daitōchō,Japan,579-8066
192,Crowley,Lakeland,United States,33811
193,Birchwood,Milwaukee,United States,53285
194,Scoville,Ono,Japan,989-1505
195,Westport,Colorado Springs,United States,80945
196,Pennsylvania,Portland,United States,97255
197,Bunting,Rumoi,Japan,518-0875
198,Del Mar,Sịa,Vietnam,
199,Steensland,Saitama,Japan,343-0801
200,Stone Corner,Nagaoka,Japan,999-2222
201,Leroy,Santa Rosa,United States,95405
202,Atwood,Fort Wayne,United States,46852
203,Esch,Richmond,United States,23285
204,Burning Wood,Shisui,Japan,285-0927
205,Washington,Thị Trấn Yên Ninh,Vietnam,
206,Barby,Ninomiya,Japan,929-1811
207,Becker,Tarui,Japan,590-0521
208,Ilene,Sakai,Japan,999-2256
209,Wayridge,Grand Rapids,United States,49505
210,Bunting,Iwakuni,Japan,741-0062
211,Eliot,Toyohama,Japan,819-0014
212,Old Shore,Harrisburg,United States,17121
213,Rutledge,Brampton,United Kingdom,NR34
214,Continental,Annaka,Japan,379-0116
215,Sommers,Takefu,Japan,919-0201
216,Waywood,Sparks,United States,89436
217,6th,El Paso,United States,88519
218,Manitowish,Sakai,Japan,999-2256
219,Buell,Takarazuka,Japan,666-0137
220,Monterey,San Francisco,United States,94121
221,Bellgrove,West End,United Kingdom,DN36
222,Almo,Savannah,United States,31410
223,Golf,Haibara,Japan,779-3601
224,Chinook,Olympia,United States,98516
225,Village,Rockford,United States,61110
226,Merrick,Memphis,United States,38188
227,Spohn,Des Moines,United States,50320
228,Atwood,Thị Trấn Quảng Uyên,Vietnam,
229,Victoria,Ngoc Hon Doc,Vietnam,
230,Maple Wood,Tampa,United States,33686
231,Dottie,Lancaster,United States,93584
232,Hintze,Motegi,Japan,865-0131
233,Warbler,Ea T’ling,Vietnam,
234,Spaight,Ōmihachiman,Japan,527-0087
235,Sunbrook,Sutton,United Kingdom,CT15
236,Northwestern,Yên Thành,Vietnam,
237,Duke,Shreveport,United States,71105
238,Ridge Oak,Yashiro,Japan,917-0102
239,Sunnyside,New Haven,United States,06510
240,Oakridge,Matsutō,Japan,929-0203
241,Nobel,Wirral,United Kingdom,CH48
242,Miller,Des Moines,United States,50362
243,Crowley,Chattanooga,United States,37416
244,Graedel,Thạnh Hóa,Vietnam,
245,Memorial,Boston,United States,02114
246,Dayton,Upton,United Kingdom,DN21
247,Mockingbird,Frankfort,United States,40618
248,Hooker,Washington,United States,20022
249,Hoard,Columbus,United States,43231
250,Butterfield,Tallahassee,United States,32314
251,Petterle,Sobue,Japan,503-1305
252,Dawn,Fort Wayne,United States,46862
253,Walton,Jefferson City,United States,65105
254,Continental,Honolulu,United States,96850
255,Sherman,Seattle,United States,98115
256,Golf,Yokotemachi,Japan,866-0873
257,Ohio,Miharu,Japan,839-1407
258,Pierstorff,Xuân Trường,Vietnam,
259,Russell,Sawara,Japan,811-1122
260,Riverside,Nobeoka,Japan,882-0877
261,Becker,Doug An,Vietnam,
262,Kingsford,Tosu,Japan,841-0205
263,Eliot,Conroe,United States,77305
264,Vermont,Okayama-shi,Japan,709-0844
265,Linden,Weston,United Kingdom,GU32
266,Mandrake,Reno,United States,89519
267,Mesta,Milwaukee,United States,53285
268,Service,Sacramento,United States,94297
269,Blackbird,Tầm Vu,Vietnam,
270,Clove,Hartford,United States,06183
271,Novick,Yao,Japan,701-0301
272,Lien,Reston,United States,22096
273,Marquette,Akune,Japan,899-1741
274,Maple Wood,Conroe,United States,77305
275,Burning Wood,Ayabe,Japan,708-1104
276,Schmedeman,Cincinnati,United States,45254
277,Fairfield,Tōgane,Japan,289-1343
278,Gina,Mỏ Cày,Vietnam,
279,Glacier Hill,Hikone,Japan,526-0826
280,Haas,Alexandria,United States,22301
281,Gateway,Sadek,Vietnam,
282,Kenwood,Boynton Beach,United States,33436
283,Crownhardt,Dallas,United States,75372
284,Hintze,Menuma,Japan,360-0201
285,Holmberg,Tokuyama,Japan,526-0212
286,Forster,New Orleans,United States,70149
287,Caliangt,Ogden,United States,84409
288,Birchwood,Decatur,United States,30089
289,Blue Bill Park,Washington,United States,20238
290,Forster,Kamo,Japan,997-1204
291,Killdeer,El Paso,United States,88519
292,Forest Dale,Toyota,Japan,952-0317
293,Arapahoe,London,United Kingdom,WC2H
294,Dahle,Chikushino-shi,Japan,818-0138
295,Rusk,Orlando,United States,32885
296,Tennyson,Santa Rosa,United States,95405
297,Blue Bill Park,Prao,Vietnam,
298,Fordem,Furukawa,Japan,963-8823
299,Norway Maple,Thuận Nam,Vietnam,
300,Memorial,Sugito,Japan,345-0036
301,Amoth,Kitakyūshū,Japan,822-0003
302,Lakewood,Saint Petersburg,United States,33710
303,Nevada,Thị Trấn Triệu Sơn,Vietnam,
304,Namekagon,Quán Hành,Vietnam,
305,John Wall,Saint Paul,United States,55108
306,Shopko,Tân Hưng,Vietnam,
307,Meadow Valley,Bradenton,United States,34282
308,Nelson,Sơn Hà,Vietnam,
309,Vera,Okazaki,Japan,800-0331
310,Twin Pines,Kurashiki,Japan,904-2145
311,Butterfield,Shawnee Mission,United States,66205
312,Loeprich,Annaka,Japan,379-0116
313,Hoepker,Suzuka,Japan,669-1417
314,Moose,Lincoln,United States,68517
315,Pearson,Madison,United States,53716
316,1st,Minami-rinkan,Japan,246-0038
317,Coleman,Kokubu-matsuki,Japan,584-0024
318,Kensington,Houston,United States,77085
319,Scoville,London,United Kingdom,EC3M
320,Oakridge,Mitsuke,Japan,954-0153
321,Spenser,Austin,United States,78737
322,Orin,Ueno,Japan,959-3213
323,Katie,Kakogawachō-honmachi,Japan,676-0828
324,Coolidge,Obita,Japan,859-0416
325,Vidon,Đồi Ngô,Vietnam,
326,Vera,Fujinomiya,Japan,421-3305
327,Ronald Regan,Takefu,Japan,919-0201
328,Kinsman,Kitsuki,Japan,873-0001
329,Mitchell,Yamaguchi-shi,Japan,754-0021
330,Loftsgordon,Sacramento,United States,95813
331,Doe Crossing,Albany,United States,12210
332,Talisman,Madison,United States,53726
333,Beilfuss,Thành Phố Uông Bí,Vietnam,
334,Myrtle,Ōfunato,Japan,410-0871
335,Doe Crossing,San Francisco,United States,94121
336,4th,Minneapolis,United States,55458
337,Oakridge,Philadelphia,United States,19141
338,Straubel,Shibata,Japan,530-0012
339,Maple,Yatsuomachi-higashikumisaka,Japan,939-2747
340,Lakewood Gardens,Battle Creek,United States,49018
341,Jenna,Phú Túc,Vietnam,
342,Mitchell,Los Angeles,United States,90030
343,Victoria,Laurel,United States,20709
344,Judy,Corona,United States,92883
345,Eagle Crest,Saint Louis,United States,63131
346,Oak,Hakui,Japan,929-1576
347,Aberg,Tomakomai,Japan,882-1622
348,Marcy,Tsuruga,Japan,957-0355
349,Farragut,Phúc Thọ,Vietnam,
350,Corben,Ninomiya,Japan,929-1811
351,Maryland,Tomigusuku,Japan,901-0241
352,Menomonie,Evansville,United States,47732
353,Morning,Naples,United States,34102
354,Stone Corner,Phúc Thọ,Vietnam,
355,Goodland,Round Rock,United States,78682
356,Quincy,Dallas,United States,75236
357,Waywood,Fort Worth,United States,76178
358,Morning,Maruoka,Japan,997-0334
359,Harbort,Kamogatachō-kamogata,Japan,719-0302
360,Briar Crest,Wilmington,United States,28410
361,Mayfield,Yanagawa,Japan,990-1274
362,Basil,Fuji,Japan,969-7208
363,Pepper Wood,Seattle,United States,98109
364,Jana,Mino,Japan,709-4306
365,Duke,Montgomery,United States,36104
366,Chive,Houston,United States,77075
367,Golf,Kasaoka,Japan,714-0081
368,Farwell,Greenville,United States,29605
369,Coleman,Melbourne,United States,32941
370,Chive,Sabae,Japan,919-0201
371,Warbler,Oklahoma City,United States,73124
372,American Ash,Aso,Japan,986-0705
373,Arapahoe,Louisville,United States,40298
374,Nancy,Yaizu,Japan,426-0224
375,Jana,Detroit,United States,48217
376,Florence,Charleston,United States,25389
377,West,Yasugichō,Japan,699-0103
378,Elgar,Sơn Trà,Vietnam,
379,Cottonwood,Yorii,Japan,838-0813
380,Shoshone,Hoàn Kiếm,Vietnam,
381,Continental,Matsumoto,Japan,996-0051
382,Pearson,San Francisco,United States,94132
383,Packers,Saku,Japan,964-0944
384,Cascade,Shido,Japan,769-2101
385,Gina,Yamaguchi-shi,Japan,754-0021
386,Bunting,Gary,United States,46406
387,Cordelia,Rochester,United States,14652
388,Lighthouse Bay,Newport News,United States,23612
389,Oneill,Dazaifu,Japan,818-0138
390,Erie,Denver,United States,80243
391,Stone Corner,Tomigusuku,Japan,901-0241
392,Riverside,Ford,United Kingdom,GL54
393,Kedzie,Trần Văn Thời,Vietnam,
394,Anzinger,Philadelphia,United States,19151
395,Springview,Kamifukuoka,Japan,959-2073
396,Harper,Pensacola,United States,32595
397,Victoria,Shawnee Mission,United States,66225
398,Debra,Uto,Japan,714-1405
399,Tennyson,Santa Cruz,United States,95064
400,Dwight,Hà Tiên,Vietnam,
401,Farwell,Aberdeen,United Kingdom,AB39
402,Havey,Los Angeles,United States,90071
403,Parkside,Oklahoma City,United States,73167
404,Texas,Phù Cát,Vietnam,
405,Pennsylvania,Charlotte,United States,28299
406,Division,Hòa Bình,Vietnam,
407,Judy,Fullerton,United States,92640
408,Birchwood,New Orleans,United States,70149
409,Sachs,Kanaya,Japan,999-3103
410,Forest Dale,Provo,United States,84605
411,7th,Roanoke,United States,24009
412,Burrows,Makurazaki,Japan,898-0031
413,Clyde Gallagher,Church End,United Kingdom,N3
414,Mandrake,Saint Petersburg,United States,33715
415,Ridge Oak,Glendale,United States,91210
416,Fairfield,Thị Trấn Yên Thịnh,Vietnam,
417,Prentice,Tendō,Japan,999-3776
418,Prairieview,Kasaoka,Japan,714-0081
419,Twin Pines,Trenton,United States,08695
420,Ruskin,Mobara,Japan,964-0432
421,Holmberg,London,United Kingdom,EC3M
422,Elgar,Funaishikawa,Japan,319-1111
423,Mcbride,Suwa,Japan,969-1627
424,Donald,Columbus,United States,43231
425,Rigney,Dallas,United States,75342
426,Fairfield,Greensboro,United States,27499
427,Maple,Austin,United States,78715
428,Lakewood Gardens,Higashimurayama-shi,Japan,359-1144
429,Alpine,Washington,United States,20508
430,Tennessee,Merton,United Kingdom,SW19
431,Doe Crossing,Elmira,United States,14905
432,Bultman,Takaishi,Japan,215-0003
433,Butterfield,Fujioka,Japan,999-7638
434,Fairview,Houston,United States,77085
435,Stuart,New York City,United States,10270
436,Hansons,Tampa,United States,33680
437,East,Edosaki,Japan,300-0636
438,Kings,Farmington,United States,48335
439,Parkside,Hakui,Japan,929-1576
440,Shelley,Kōnosu,Japan,369-0137
441,Waywood,Hadano,Japan,259-1335
442,Eggendart,Nabari,Japan,509-4122
443,Shasta,Huntsville,United States,35815
444,Scott,Boca Raton,United States,33487
445,Brickson Park,Los Angeles,United States,90030
446,Summer Ridge,Kasaoka,Japan,714-0081
447,Portage,Birmingham,United States,35254
448,Mifflin,Chợ Mới,Vietnam,
449,Raven,Niimi,Japan,718-0011
450,Oxford,Houston,United States,77281
451,Anhalt,Fukuoka-shi,Japan,816-0097
452,Little Fleur,Ninh Hòa,Vietnam,
453,Clemons,Hamada,Japan,998-0031
454,Killdeer,Tsushima,Japan,979-1757
455,Dwight,San Diego,United States,92170
456,Del Mar,Bibai,Japan,879-0444
457,Hayes,Cincinnati,United States,45254
458,Elka,New York City,United States,10105
459,Fieldstone,Satte,Japan,340-0113
460,American Ash,Ninomiya,Japan,929-1811
461,Redwing,Little Rock,United States,72215
462,Main,South Bend,United States,46620
463,Stephen,Suzaka,Japan,389-0811
464,Ryan,Obihiro,Japan,652-0837
465,Pawling,Detroit,United States,48232
466,Jackson,Makabe,Japan,901-0336
467,Dayton,Shimoda,Japan,886-0112
468,Northport,Shizunai-furukawachō,Japan,942-0213
469,Bluejay,Charleston,United States,29424
470,Mcbride,Boulder,United States,80305
471,West,Tacoma,United States,98405
472,Columbus,Thị Trấn Yên Phú,Vietnam,
473,Mcbride,Washington,United States,20051
474,Gale,Cincinnati,United States,45254
475,Sutherland,Katy,United States,77493
476,Tennessee,Birmingham,United States,35254
477,Vermont,Kurihashi,Japan,349-1104
478,Melody,Chiryū,Japan,474-0074
479,Karstens,Pasadena,United States,91117
480,Portage,Gary,United States,46406
481,Victoria,Ayabe,Japan,708-1104
482,Kings,Gamagōri,Japan,444-0701
483,Fieldstone,Roanoke,United States,24048
484,Anhalt,Tamano,Japan,976-0154
485,Garrison,Tiên Phước,Vietnam,
486,Mallard,Miyoshi,Japan,969-3501
487,Karstens,Yokkaichi,Japan,960-0752
488,Hooker,Akron,United States,44315
489,Kim,Satte,Japan,340-0113
490,Hanson,Rockford,United States,61110
491,Reindahl,Omaha,United States,68164
492,Little Fleur,Niimi,Japan,718-0011
493,2nd,Yamagata-shi,Japan,990-2412
494,Orin,Shizukuishi,Japan,680-1166
495,New Castle,Hội An,Vietnam,
496,Oakridge,Yūki,Japan,323-0805
497,Esch,Virginia Beach,United States,23459
498,Holy Cross,Ōarai,Japan,311-1500
499,Comanche,Washington,United States,20508
500,Becker,Madison,United States,53726
501,Homewood,Salt Lake City,United States,84120
502,Mandrake,Thị Trấn Mộc Châu,Vietnam,
503,Glacier Hill,Tondabayashichō,Japan,589-0013
504,Mcguire,Sunagawa,Japan,997-0415
505,Randy,Church End,United Kingdom,CB4
506,Sachtjen,Ijūin,Japan,899-3221
507,Rieder,Grand Junction,United States,81505
508,Brentwood,Toki,Japan,509-6251
509,Porter,Hartford,United States,06145
510,Shasta,Nayoro,Japan,607-8077
511,Stang,Shiozawa,Japan,989-0842
512,Morning,Brooklyn,United States,11247
513,Debs,Richmond,United States,23289
514,Nevada,Shido,Japan,769-2101
515,Debs,Aberdeen,United Kingdom,AB39
516,Hansons,Onoda,Japan,979-1543
517,Walton,Kawaguchi,Japan,999-5203
518,Florence,Manassas,United States,22111
519,Mariners Cove,Sakata,Japan,979-1504
520,Judy,Narita,Japan,993-0075
521,Lindbergh,Poste du Lac,Vietnam,
522,Superior,Kitakata,Japan,987-0513
523,Independence,Shiraoka,Japan,349-0218
524,Esker,Tallahassee,United States,32314
525,Fremont,Iwakuni,Japan,741-0062
526,Forest Run,Kōriyama,Japan,963-8878
527,Katie,Phoenix,United States,85010
528,Everett,Trảng Bom,Vietnam,
529,Arapahoe,Cincinnati,United States,45208
530,Farmco,Albany,United States,12247
531,Tennyson,Gainesville,United States,32605
532,Eliot,Thị Trấn Bắc Hà,Vietnam,
533,Blackbird,Flushing,United States,11388
534,Mayer,Lawrenceville,United States,30045
535,Sauthoff,Tokyo,Japan,176-0014
536,Warner,Kashihara,Japan,769-0105
537,Dennis,Isesaki,Japan,321-4342
538,Golf,Rochester,United States,55905
539,Carioca,Grand Rapids,United States,49510
540,Leroy,Ashikaga,Japan,374-0079
541,Comanche,Ryūgasaki,Japan,301-0856
542,School,Kuroiso,Japan,325-0017
543,Burrows,Uenohara,Japan,981-4327
544,Elka,Washington,United States,20220
545,High Crossing,Beaufort,United States,29905
546,Pawling,Xuân Trường,Vietnam,
547,Hazelcrest,Waco,United States,76705
548,Little Fleur,Daigo,Japan,960-0645
549,Starling,Kurashiki,Japan,904-2145
550,Anthes,Khe Tre,Vietnam,
551,Canary,Denver,United States,80279
552,Helena,Kansas City,United States,66105
553,Rutledge,Philadelphia,United States,19151
554,Basil,Eaton,United Kingdom,DN22
555,Duke,Rumoi,Japan,518-0875
556,Eastwood,Raleigh,United States,27635
557,Comanche,Rifu,Japan,981-0112
558,Aberg,Quốc Oai,Vietnam,
559,Lawn,Grand Junction,United States,81505
560,Oak Valley,Washington,United States,20430
561,Gina,Kansas City,United States,64125
562,Eagle Crest,Pittsburgh,United States,15220
563,Rowland,Yashiro,Japan,917-0102
564,Oak,Kuroishi,Japan,789-0250
565,Caliangt,Saga-shi,Japan,840-2223
566,Lakeland,Cầu Gồ,Vietnam,
567,7th,Tân Việt,Vietnam,
568,North,San Antonio,United States,78220
569,Welch,Omigawa,Japan,289-0313
570,Farragut,Chikushino-shi,Japan,818-0138
571,Marquette,Kitsuki,Japan,873-0001
572,International,Paterson,United States,07505
573,Anzinger,Thị Trấn Mường Tè,Vietnam,
574,Service,Thị Trấn Phú Mỹ,Vietnam,
575,Elmside,San Francisco,United States,94121
576,Melody,Oklahoma City,United States,73135
577,Pine View,Florence,United States,29505
578,Atwood,Toledo,United States,43635
579,Fairview,Sandachō,Japan,673-1236
580,Farwell,Salt Lake City,United States,84115
581,Mallard,Numata,Japan,996-0087
582,Atwood,Chư Prông,Vietnam,
583,Clove,Thị Trấn Nga Sơn,Vietnam,
584,Moland,Philadelphia,United States,19178
585,Kipling,Sacramento,United States,95852
586,Randy,Dallas,United States,75287
587,5th,Dulles,United States,20189
588,Hansons,Brooklyn,United States,11254
589,Emmet,Cheyenne,United States,82007
590,Daystar,Largo,United States,34643
591,Mosinee,Yasugichō,Japan,699-0103
592,Lindbergh,Charlotte,United States,28299
593,2nd,Motegi,Japan,865-0131
594,Fordem,Phu Loc,Vietnam,
595,Sycamore,Dầu Tiếng,Vietnam,
596,Melrose,Palatine,United States,60078
597,Morrow,Kim Sơn,Vietnam,
598,Shoshone,Lansing,United States,48919
599,Fisk,Văn Giang,Vietnam,
600,Arrowood,Austin,United States,78726
601,Warrior,Little Rock,United States,72215
602,Pankratz,Thạnh Hóa,Vietnam,
603,International,Kamiichi,Japan,872-0511
604,Magdeline,Yachimata,Japan,289-1211
605,Artisan,Ōta,Japan,373-0862
606,Gale,Seattle,United States,98140
607,Grim,Rochester,United States,14604
608,Burrows,Thị Trấn Yên Thế,Vietnam,
609,Elka,Kim Sơn,Vietnam,
610,Lyons,Fukumitsu,Japan,830-0114
611,Mifflin,Cincinnati,United States,45228
612,Cambridge,Fullerton,United States,92640
613,Gina,Shiroishi,Japan,963-7856
614,Myrtle,Iizuka,Japan,820-1114
615,Carpenter,West Palm Beach,United States,33411
616,Reindahl,Makabe,Japan,901-0336
617,Tennyson,Tây Hồ,Vietnam,
618,Novick,Fort Lauderdale,United States,33355
619,Sycamore,Jeffersonville,United States,47134
620,Kensington,Richmond,United States,23203
621,Grasskamp,Kan’onjichō,Japan,769-1613
622,Derek,Sunagawa,Japan,997-0415
623,Ronald Regan,Salt Lake City,United States,84120
624,Monument,Hatogaya-honchō,Japan,336-0036
625,Dorton,Glasgow,United Kingdom,G4
626,Nevada,Phù Mỹ,Vietnam,
627,Clarendon,San Diego,United States,92127
628,Lillian,Austin,United States,78726
629,Novick,Aki,Japan,742-2807
630,Fairview,Mukō,Japan,617-0002
631,Bultman,Lào Cai,Vietnam,
632,Graceland,Denton,United States,76205
633,Butternut,Sacramento,United States,95833
634,Annamark,Da Nang,Vietnam,
635,Chive,Minneapolis,United States,55470
636,Alpine,London,United Kingdom,SW1E
637,Alpine,Toyohashi,Japan,393-0001
638,Del Mar,Detroit,United States,48232
639,Towne,Providence,United States,02912
640,Scott,Phù Mỹ,Vietnam,
641,Kingsford,Tsushima,Japan,979-1757
642,Oak Valley,Yokosuka,Japan,987-2224
643,Manley,Charleston,United States,25389
644,Sauthoff,Reston,United States,20195
645,Laurel,San Francisco,United States,94154
646,Randy,Omaha,United States,68105
647,Hollow Ridge,Utsunomiya-shi,Japan,329-1117
648,Beilfuss,Stockton,United States,95205
649,Hanson,Gōtsuchō,Japan,699-3162
650,Cardinal,Murakami,Japan,969-6142
651,Crownhardt,Sacramento,United States,94250
652,Moulton,Uji,Japan,699-1105
653,Debs,Matsushima,Japan,981-0213
654,Acker,Kuroiso,Japan,325-0017
655,Pankratz,Oklahoma City,United States,73124
656,Ryan,Fukagawa,Japan,999-7767
657,Graedel,Springfield,United States,62705
658,South,Thị Trấn Bắc Yên,Vietnam,
659,Cascade,Amarillo,United States,79171
660,Rowland,Satsumasendai,Japan,899-1922
661,Sachtjen,Thị Trấn Quế,Vietnam,
662,Forest Dale,Tiên Phước,Vietnam,
663,Debs,Setaka,Japan,834-0122
664,1st,Brooklyn,United States,11205
665,Pankratz,Kōfu-shi,Japan,409-3841
666,Bluejay,Dallas,United States,75260
667,Northland,Saga-shi,Japan,840-2223
668,Center,Ishikawa,Japan,960-1476
669,Kinsman,New Haven,United States,06510
670,Swallow,Kanaya,Japan,999-3103
671,Northland,Ōnojō,Japan,818-0138
672,Vermont,Springfield,United States,62756
673,Redwing,Los Angeles,United States,90065
674,Sherman,Matsubase,Japan,869-0502
675,Golf,Long Hồ,Vietnam,
676,Donald,Alexandria,United States,22313
677,Golf,Ai Tu,Vietnam,
678,Fisk,Austin,United States,78715
679,Derek,Bronx,United States,10464
680,Union,Kazo,Japan,365-0023
681,Wayridge,Ōgaki,Japan,503-2429
682,Schurz,Takeo,Japan,950-0862
683,School,Nobeoka,Japan,882-0877
684,Monica,Niigata-shi,Japan,951-8167
685,North,Phúc Thọ,Vietnam,
686,Spenser,Elmira,United States,14905
687,8th,Quận Năm,Vietnam,
688,Jackson,Phan Rang-Tháp Chàm,Vietnam,
689,Blackbird,Shawnee Mission,United States,66276
690,Graedel,Macon,United States,31205
691,Hovde,Washington,United States,20088
692,Fisk,Charleston,United States,25336
693,Buena Vista,Alexandria,United States,22313
694,Walton,Anchorage,United States,99522
695,Messerschmidt,Takeo,Japan,950-0862
696,Sullivan,Sawara,Japan,811-1122
697,Montana,Takefu,Japan,919-0201
698,Duke,Oklahoma City,United States,73142
699,Everett,Nabari,Japan,509-4122
700,Victoria,Thị Trấn Nước Hai,Vietnam,
701,Monument,Ōdate,Japan,270-0105
702,Starling,Jefferson City,United States,65105
703,Dovetail,Ōgaki,Japan,503-2429
704,Randy,Hiji,Japan,905-1413
705,Manufacturers,Daytona Beach,United States,32128
706,Blaine,Kainan,Japan,649-6326
707,Onsgard,Thị Trấn Trùng Khánh,Vietnam,
708,Springview,Hương Sơn,Vietnam,
709,Carberry,Wako,Japan,354-0046
710,Hooker,Izumiōtsu,Japan,597-0095
711,Mifflin,Kasamatsuchō,Japan,504-0968
712,Tomscot,El Paso,United States,79977
713,Melby,Buckland,United Kingdom,CT16
714,Graceland,Tampa,United States,33673
715,Kings,Birmingham,United Kingdom,B40
716,Pawling,Tampa,United States,33615
717,Fairview,Uwajima,Japan,798-1354
718,Kipling,Shimo-furano,Japan,639-2332
719,Northwestern,Saint Petersburg,United States,33715
720,Nancy,Washington,United States,20436
721,Graedel,Sóc Sơn,Vietnam,
722,Larry,Quận Năm,Vietnam,
723,Pawling,Lincoln,United States,68505
724,Namekagon,Punta Gorda,United States,33982
725,Farmco,New York City,United States,10131
726,Schmedeman,Rochester,United States,14609
727,Maryland,Kitahama,Japan,985-0003
728,Oak,Church End,United Kingdom,N3
729,Harper,Beaverton,United States,97075
730,Meadow Valley,Sukumo,Japan,788-0363
731,Armistice,Birmingham,United States,35244
732,Graceland,Saint Louis,United States,63136
733,Cottonwood,Komatsushimachō,Japan,779-1122
734,Messerschmidt,Suzuka,Japan,669-1417
735,Moulton,Gujō,Japan,501-4455
736,Haas,Mombetsu,Japan,467-0862
737,La Follette,Chattanooga,United States,37410
738,Dryden,Boynton Beach,United States,33436
739,Hallows,Racine,United States,53405
740,Beilfuss,Atlanta,United States,31106
741,Maple,Greenville,United States,29605
742,Moulton,Louisville,United States,40266
743,Oxford,Enzan,Japan,918-8207
744,Moose,Toyokawa,Japan,999-8132
745,Pierstorff,Phoenix,United States,85072
746,Prentice,Tây Đằng,Vietnam,
747,Maple Wood,Kakamigahara,Japan,509-0147
748,Milwaukee,Jōetsu,Japan,949-1742
749,Aberg,Thị Trấn Mường Tè,Vietnam,
750,Mcguire,Milton,United Kingdom,NG22
751,Jenifer,Isahaya,Japan,859-0413
752,Moulton,Elmira,United States,14905
753,Talmadge,Thorpe,United Kingdom,BD23
754,Summit,Yamoto,Japan,981-0503
755,Monument,Kariya,Japan,969-1619
756,Cascade,Mobile,United States,36670
757,Corben,Kanie,Japan,498-0062
758,Red Cloud,San Angelo,United States,76905
759,Novick,Tenri,Japan,639-1156
760,Fisk,Komaki,Japan,959-1226
761,Parkside,Terre Haute,United States,47812
762,Westridge,Brooklyn,United States,11215
763,Loeprich,San Jose,United States,95123
764,Crest Line,Hotaka,Japan,399-8303
765,Badeau,Sakata,Japan,979-1504
766,Brickson Park,Ðà Lạt,Vietnam,
767,Cottonwood,Ishikawa,Japan,960-1476
768,Corry,Jacksonville,United States,32236
769,Northland,Memphis,United States,38168
770,Crownhardt,Hồ Xá,Vietnam,
771,Logan,Abashiri,Japan,408-0021
772,Killdeer,Nishinomiya-hama,Japan,663-8234
773,Hintze,Honolulu,United States,96850
774,Onsgard,Bình Minh,Vietnam,
775,Fisk,Fukui-shi,Japan,919-0486
776,Heffernan,Giồng Riềng,Vietnam,
777,Hayes,Sơn Tịnh,Vietnam,
778,Chinook,Toyama-shi,Japan,939-8282
779,Toban,Quỳnh Côi,Vietnam,
780,Kingsford,Durham,United States,27717
781,Ridgeview,Las Vegas,United States,89155
782,6th,Wilmington,United States,19810
783,Jackson,Izumiōtsu,Japan,597-0095
784,Westridge,Rochester,United States,14619
785,Jenna,Hekinan,Japan,475-0803
786,Oakridge,Phoenix,United States,85072
787,Little Fleur,Pittsburgh,United States,15250
788,Memorial,Tiên Phước,Vietnam,
789,Meadow Ridge,Newtown,United Kingdom,RG20
790,Garrison,Quận Tân Phú,Vietnam,
791,Park Meadow,Colorado Springs,United States,80920
792,Coleman,Thành Phố Nam Định,Vietnam,
793,Oriole,Columbia,United States,29220
794,Comanche,Shawnee Mission,United States,66225
795,Hazelcrest,Motegi,Japan,865-0131
796,Sunfield,Tanabe,Japan,610-0331
797,Packers,Springfield,United States,62705
798,Roxbury,Thị Trấn Bắc Hà,Vietnam,
799,Ryan,Fort Wayne,United States,46857
800,Hoffman,Thành Phố Ninh Bình,Vietnam,
801,Eggendart,Yatsuomachi-higashikumisaka,Japan,939-2747
802,Dryden,Matsudo,Japan,441-2303
803,Ramsey,Ōdachō-ōda,Japan,699-2211
804,Mcguire,Uozu,Japan,938-0049
805,Forest,Matsubase,Japan,869-0502
806,Artisan,Charleston,United States,25362
807,Main,Yugawara,Japan,259-0318
808,Fairfield,Quỳ Châu,Vietnam,
809,Fordem,Sakaidechō,Japan,769-0228
810,Rockefeller,Okegawa,Japan,365-0024
811,Glendale,Nagahama,Japan,968-0442
812,Grasskamp,Newark,United States,19714
813,Blackbird,Naperville,United States,60567
814,Blue Bill Park,Kaminokawa,Japan,899-2421
815,Eagle Crest,Murfreesboro,United States,37131
816,Brown,Thị Trấn Yên Châu,Vietnam,
817,Golf,Bến Cầu,Vietnam,
818,Independence,Birmingham,United States,35263
819,Spaight,Dallas,United States,75236
820,4th,Halton,United Kingdom,LS9
821,Canary,Hiroshima-shi,Japan,736-0089
822,Ridgeway,Thị Trấn Mù Cang Chải,Vietnam,
823,Towne,Wilmington,United States,19892
824,Dayton,Thị Trấn Hát Lót,Vietnam,
825,Farwell,Tiền Hải,Vietnam,
826,Sauthoff,New York City,United States,10105
827,Carpenter,Kishiwada,Japan,571-0002
828,Northport,Yamaguchi-shi,Japan,754-0021
829,Village,Muramatsu,Japan,441-3603
830,Scoville,Bảo Lộc,Vietnam,
831,Oriole,Kure,Japan,789-1301
832,Mosinee,Kanie,Japan,498-0062
833,Village Green,Denton,United Kingdom,M34
834,Parkside,Boston,United States,02216
835,International,Yên Thành,Vietnam,
836,Algoma,Thị Trấn Thọ Xuân,Vietnam,
837,Hudson,Bradford,United Kingdom,BD7
838,Scott,Nirasaki,Japan,407-0176
839,Northwestern,Lafayette,United States,70505
840,Heath,Hamakita,Japan,929-1174
841,Claremont,Saint Louis,United States,63143
842,Prentice,New York City,United States,10270
843,Forest Dale,Fort Worth,United States,76198
844,Bellgrove,Tacoma,United States,98464
845,Warner,Tsukumiura,Japan,879-2413
846,Monterey,Austin,United States,78726
847,Village,Gyōda,Japan,369-0137
848,Anzinger,Montgomery,United States,36195
849,Lake View,Kameyama,Japan,988-0607
850,Gina,Thị Trấn Than Uyên,Vietnam,
851,Harbort,Liverpool,United Kingdom,L33
852,Mcbride,Olympia,United States,98516
853,Hoffman,Sakai,Japan,999-2256
854,Crest Line,Mỹ Xuyên,Vietnam,
855,Almo,Shirahamachō-usazakiminami,Japan,672-8090
856,Westend,Tōno,Japan,326-0036
857,Fulton,Lawrenceville,United States,30045
858,Sundown,Nikkō,Japan,321-1436
859,Sunfield,Dallas,United States,75287
860,Declaration,Independence,United States,64054
861,Thompson,Rockford,United States,61105
862,Clarendon,Newton,United Kingdom,NG34
863,Hollow Ridge,Lancaster,United States,17622
864,Farragut,Stamford,United States,06912
865,Gateway,Pasadena,United States,91117
866,Summerview,Columbus,United States,43268
867,Bashford,Hamilton,United States,45020
868,Sherman,Hondo,Japan,503-0232
869,Derek,Saint Petersburg,United States,33715
870,Susan,Glendale,United States,91210
871,Ryan,Harrisburg,United States,17126
872,Superior,Ōbu,Japan,474-0074
873,Bartelt,Garden Grove,United States,92844
874,Gateway,Sacramento,United States,94273
875,Marcy,Phúc Yên,Vietnam,
876,Lillian,Mito-shi,Japan,319-0324
877,American Ash,Minokamo,Japan,509-0307
878,Stephen,Toyohama,Japan,819-0014
879,Manley,Evansville,United States,47719
880,Judy,Thị Trấn Hùng Quốc,Vietnam,
881,Becker,Newport Beach,United States,92662
882,Utah,Las Vegas,United States,89115
883,Calypso,Miura,Japan,894-2414
884,Northview,Ōtsuchi,Japan,350-0134
885,Almo,Hirakata,Japan,999-7681
886,Monica,Ishiki,Japan,957-0353
887,Meadow Vale,Atlanta,United States,31165
888,Kingsford,Tân Trụ,Vietnam,
889,Granby,Shreveport,United States,71151
890,Mesta,New York City,United States,10045
891,Kennedy,Thị Trấn Bình Mỹ,Vietnam,
892,Amoth,Suwa,Japan,969-1627
893,Independence,Upton,United Kingdom,DN21
894,Lillian,Grand Forks,United States,58207
895,Dayton,Norfolk,United States,23509
896,Crescent Oaks,Ikedachō,Japan,779-5166
897,Pine View,Washington,United States,20067
898,Karstens,Shin’ichi,Japan,729-3111
899,Porter,Houston,United States,77085
900,Mifflin,Tân Hưng,Vietnam,
901,Mayer,Nakama,Japan,904-0401
902,Butternut,Ageoshimo,Japan,362-0025
903,Melby,Ô Môn,Vietnam,
904,Northfield,Cô Tô,Vietnam,
905,Claremont,New York City,United States,10155
906,Duke,Trảng Bàng,Vietnam,
907,Becker,Kissimmee,United States,34745
908,Kings,Matsutō,Japan,929-0203
909,Dunning,Washington,United States,20566
910,Center,Rochester,United States,55905
911,Northfield,New Brunswick,United States,08922
912,Ridgeview,Chơn Thành,Vietnam,
913,Troy,Tucson,United States,85705
914,Gateway,Washington,United States,20546
915,Sheridan,Ōme,Japan,357-0056
916,Mitchell,Ai Tu,Vietnam,
917,Ilene,Jōetsu,Japan,949-1742
918,Di Loreto,Columbus,United States,43240
919,Tony,Sabae,Japan,919-0201
920,Westerfield,Yên Mỹ,Vietnam,
921,Schmedeman,Richmond,United States,23289
922,Coleman,Thị Trấn Văn Quan,Vietnam,
923,Bayside,Washington,United States,20078
924,David,Colorado Springs,United States,80945
925,Evergreen,Thị Trấn Ngải Giao,Vietnam,
926,Bayside,Chattanooga,United States,37416
927,Northridge,Hobaramachi,Japan,960-0808
928,Schmedeman,Ōmiya,Japan,319-3117
929,Bluestem,Ishioka,Japan,999-2171
930,Starling,Gōtsuchō,Japan,699-3162
931,Ohio,Shiroi,Japan,506-2118
932,Cody,Birmingham,United Kingdom,B12
933,Westend,Quỳnh Côi,Vietnam,
934,Luster,Matsumoto,Japan,996-0051
935,Straubel,Ōkuchi,Japan,895-2635
936,Emmet,Hachiōji,Japan,197-0834
937,Manufacturers,Newark,United States,07195
938,Anzinger,Zushi,Japan,569-0036
939,Starling,Round Rock,United States,78682
940,Banding,Vũng Tàu,Vietnam,
941,Springview,Fort Lauderdale,United States,33355
942,Cordelia,San Bernardino,United States,92415
943,Vera,Phú Lộc,Vietnam,
944,Waubesa,Funaishikawa,Japan,319-1111
945,Mcbride,Nikkō,Japan,321-1436
946,Blackbird,Fujishiro,Japan,642-0034
947,Doe Crossing,Komatsu,Japan,999-8317
948,Anthes,Thành Phố Uông Bí,Vietnam,
949,Fisk,Đắk Mâm,Vietnam,
950,Raven,Albany,United States,12210
951,Del Mar,Thành phố Bạc Liêu,Vietnam,
952,Kropf,Hakui,Japan,929-1576
953,Dawn,Washington,United States,20470
954,Tomscot,Đoan Hùng,Vietnam,
955,Esch,Erie,United States,16565
956,Barnett,Preston,United Kingdom,PR1
957,Bunting,Nagahama,Japan,968-0442
958,Straubel,Thị Xã Lai Châu,Vietnam,
959,Huxley,Miami,United States,33190
960,Bluestem,Honolulu,United States,96835
961,Autumn Leaf,Bác Ái,Vietnam,
962,Ridgeway,Mizunami,Japan,957-0048
963,Alpine,Lubbock,United States,79405
964,Blaine,Kim Sơn,Vietnam,
965,Daystar,Ichinohe,Japan,675-0068
966,Cordelia,Round Rock,United States,78682
967,Killdeer,Yono,Japan,707-0112
968,Northview,Kanie,Japan,498-0062
969,Longview,Jeffersonville,United States,47134
970,Pepper Wood,Cleveland,United States,44185
971,Harbort,Takahashi,Japan,999-4201
972,Macpherson,Naples,United States,34108
973,Esch,North Little Rock,United States,72199
974,Union,Kansas City,United States,64130
975,Brickson Park,Newport Beach,United States,92662
976,Pond,Thị Trấn Tam Điệp,Vietnam,
977,Vahlen,Higashimurayama-shi,Japan,359-1144
978,Forest Dale,Salt Lake City,United States,84105
979,Redwing,Hiratsuka,Japan,820-0702
980,Walton,Migrate,United States,41905
981,Merry,San Antonio,United States,78220
982,Oxford,Los Angeles,United States,90055
983,Summerview,Spring,United States,77386
984,Transport,Liên Chiểu,Vietnam,
985,Melvin,Sakura,Japan,989-2433
986,Anthes,Kakegawa,Japan,436-0079
987,Hayes,Corpus Christi,United States,78410
988,Rutledge,Hyattsville,United States,20784
989,Norway Maple,Gamagōri,Japan,444-0701
990,Erie,Vân Đình,Vietnam,
991,Scofield,Ōno-hara,Japan,739-0559
992,Redwing,Phan Rang-Tháp Chàm,Vietnam,
993,Columbus,Hòa Bình,Vietnam,
994,Stuart,Cao Thượng,Vietnam,
995,Pawling,Zushi,Japan,569-0036
996,Continental,Danbury,United States,06816
997,Dexter,Jacksonville,United States,32244
998,Kinsman,Austin,United States,78764
999,Corscot,Châu Thành,Vietnam,
1000,Vahlen,Mỹ Thọ,Vietnam,
